0 THOR ABLESTAR R/B
1 01508U 65065B   13282.47643339  .00000042  00000-0  63538-4 0  4092
2 01508 090.0808 244.3560 0043911 080.5089 055.1170 13.35874984347288
0 THOR ABLESTAR R/B
1 01508U 65065B   13284.49920014  .00000038  00000-0  55906-4 0  4101
2 01508 090.0811 244.3720 0043848 075.0281 062.6815 13.35875179347558
0 THOR ABLESTAR R/B
1 01508U 65065B   13286.81067642  .00000009  00000-0  15946-6 0  4119
2 01508 090.0816 244.3902 0043786 068.7741 018.6527 13.35875368347861
0 THOR ABLESTAR R/B
1 01508U 65065B   13288.83260777  .00000026  00000-0  33330-4 0  4122
2 01508 090.0822 244.4062 0043622 063.2678 022.2297 13.35875403348130
0 THOR ABLESTAR R/B
1 01508U 65065B   13291.07475167  .00000050  00000-0  79409-4 0  4138
2 01508 090.0827 244.4242 0043461 057.1629 004.8223 13.35875136348435
0 THOR ABLESTAR R/B
1 01508U 65065B   13293.17603579  .00000060  00000-0  98418-4 0  4144
2 01508 090.0829 244.4413 0043350 051.4299 030.0217 13.35875358348715
0 THOR ABLESTAR R/B
1 01508U 65065B   13295.19923267  .00000059  00000-0  96779-4 0  4154
2 01508 090.0830 244.4579 0043196 045.8763 039.7286 13.35875596348986
